NORAD_CAT_ID,OBJECT_NAME,OBJECT_TYPE,EPOCH,MEAN_MOTION,ECCENTRICITY,INCLINATION,RA_OF_ASC_NODE,ARG_OF_PERICENTER,MEAN_ANOMALY,BSTAR,MEAN_MOTION_DOT,MEAN_MOTION_DDOT,TLE_LINE0,TLE_LINE1,TLE_LINE2,SEMIMAJOR_AXIS,PERIOD,APOGEE,PERIGEE,DECAYED
53852.0,STARLINK-4797,PAYLOAD,2023-09-17 15:37:13,15.08855846,0.000157,53.2197,27.4389,93.7291,266.3881,2.3207e-05,8.1e-07,0.0,0 STARLINK-4797,1 53852U 22114AL  23260.65085183  .00000081  00000-0  23207-4 0  9999,2 53852  53.2197  27.4389 0001570  93.7291 266.3881 15.08855846 56026,6917.832,95.437,540.783,538.611,0.0
53852.0,STARLINK-4797,PAYLOAD,2023-09-18 01:09:33,15.08843386,0.0001631,53.2198,25.6542,73.1288,286.9883,3.1338e-05,2.11e-06,0.0,0 STARLINK-4797,1 53852U 22114AL  23261.04830008  .00000211  00000-0  31338-4 0  9996,2 53852  53.2198  25.6542 0001631  73.1288 286.9883 15.08843386 56086,6917.87,95.437,540.863,538.607,0.0
53852.0,STARLINK-4797,PAYLOAD,2023-09-18 09:06:29,15.08833303,0.0001383,53.2211,24.1685,91.0717,269.0434,9.1262e-05,1.165e-05,0.0,0 STARLINK-4797,1 53852U 22114AL  23261.37950423  .00001165  00000-0  91262-4 0  9997,2 53852  53.2211  24.1685 0001383  91.0717 269.0434 15.08833303 56132,6917.901,95.438,540.723,538.809,0.0
53852.0,STARLINK-4797,PAYLOAD,2023-09-18 13:52:38,15.08835532,0.000139,53.2207,23.277,92.5423,267.5728,7.9655e-05,9.8e-06,0.0,0 STARLINK-4797,1 53852U 22114AL  23261.57822350  .00000980  00000-0  79655-4 0  9992,2 53852  53.2207  23.2770 0001390  92.5423 267.5728 15.08835532 56708,6917.894,95.438,540.721,538.797,0.0
53852.0,STARLINK-4797,PAYLOAD,2023-09-19 01:00:20,15.08841255,0.000145,53.2207,21.1957,94.7206,265.3952,8.4859e-05,1.063e-05,0.0,0 STARLINK-4797,1 53852U 22114AL  23262.04190049  .00001063  00000-0  84859-4 0  9993,2 53852  53.2207  21.1957 0001450  94.7206 265.3952 15.08841255 56234,6917.877,95.437,540.745,538.738,0.0
53852.0,STARLINK-4797,PAYLOAD,2023-09-19 15:18:47,15.08860162,0.000134,53.2188,18.516,87.0807,273.0339,0.00022759,3.338e-05,0.0,0 STARLINK-4797,1 53852U 22114AL  23262.63804682  .00003338  00000-0  22759-3 0  9990,2 53852  53.2188  18.5160 0001340  87.0807 273.0339 15.08860162 56321,6917.819,95.436,540.611,538.757,0.0
53852.0,STARLINK-4797,PAYLOAD,2023-09-20 11:58:50,15.08818037,9.08e-05,53.2185,14.6473,77.7722,282.3372,7.7186e-05,9.4e-06,0.0,0 STARLINK-4797,1 53852U 22114AL  23263.49919375  .00000940  00000-0  77186-4 0  9992,2 53852  53.2185  14.6473 0000908  77.7722 282.3372 15.08818037 56451,6917.948,95.439,540.441,539.184,0.0
53852.0,STARLINK-4797,PAYLOAD,2023-09-20 15:09:36,15.08818316,0.0001546,53.2186,14.0569,65.1443,294.971,-0.00020323,-3.519e-05,0.0,0 STARLINK-4797,1 53852U 22114AL  23263.63167610 -.00003519  00000-0 -20323-3 0  9992,2 53852  53.2186  14.0569 0001546  65.1443 294.9710 15.08818316 57010,6917.947,95.439,540.881,538.742,0.0
53852.0,STARLINK-4797,PAYLOAD,2023-09-21 07:03:28,15.0883167,0.0001352,53.2188,11.0829,67.6292,292.4843,1.4518e-05,-5.7e-07,0.0,0 STARLINK-4797,1 53852U 22114AL  23264.29407420 -.00000057  00000-0  14518-4 0  9994,2 53852  53.2188  11.0829 0001352  67.6292 292.4843 15.08831670 56570,6917.906,95.438,540.706,538.836,0.0
53852.0,STARLINK-4797,PAYLOAD,2023-09-21 13:25:00,15.08839802,0.0002355,53.2176,9.8982,44.0026,316.1153,9.7837e-05,1.269e-05,0.0,0 STARLINK-4797,1 53852U 22114AL  23264.55903360  .00001269  00000-0  97837-4 0  9997,2 53852  53.2176   9.8982 0002355  44.0026 316.1153 15.08839802 57158,6917.881,95.438,541.375,538.117,0.0
53852.0,STARLINK-4797,PAYLOAD,2023-09-22 00:32:41,15.08851095,0.0001565,53.2177,7.8154,63.0332,297.082,0.00022725,3.332e-05,0.0,0 STARLINK-4797,1 53852U 22114AL  23265.02270562  .00003332  00000-0  22725-3 0  9997,2 53852  53.2177   7.8154 0001565  63.0332 297.0820 15.08851095 56684,6917.846,95.437,540.794,538.629,0.0
53852.0,STARLINK-4797,PAYLOAD,2023-09-22 10:05:01,15.08843989,0.000163,53.2181,6.0292,65.04,295.0761,0.00049163,7.546e-05,0.0,0 STARLINK-4797,1 53852U 22114AL  23265.42015248  .00007546  00000-0  49163-3 0  9995,2 53852  53.2181   6.0292 0001630  65.0400 295.0761 15.08843989 56746,6917.868,95.437,540.861,538.606,0.0
53852.0,STARLINK-4797,PAYLOAD,2023-09-22 13:15:47,15.08847975,0.0001664,53.2187,5.4339,67.2694,292.8473,0.00046501,7.122e-05,0.0,0 STARLINK-4797,1 53852U 22114AL  23265.55263079  .00007122  00000-0  46501-3 0  9999,2 53852  53.2187   5.4339 0001664  67.2694 292.8473 15.08847975 57300,6917.856,95.437,540.872,538.57,0.0
53852.0,STARLINK-4797,PAYLOAD,2023-09-23 13:06:33,15.08848883,0.0001573,53.2175,0.9732,63.9602,296.1552,3.308e-05,2.39e-06,0.0,0 STARLINK-4797,1 53852U 22114AL  23266.54622500  .00000239  00000-0  33080-4 0  9998,2 53852  53.2175   0.9732 0001573  63.9602 296.1552 15.08848883 56915,6917.853,95.437,540.806,538.63,0.0
53852.0,STARLINK-4797,PAYLOAD,2023-09-23 16:17:19,15.08857756,0.0001466,53.2185,0.3769,80.0615,280.0542,-3.6903e-05,-8.76e-06,0.0,0 STARLINK-4797,1 53852U 22114AL  23266.67869978 -.00000876  00000-0 -36903-4 0  9990,2 53852  53.2185   0.3769 0001466  80.0615 280.0542 15.08857756 56937,6917.826,95.436,540.705,538.677,0.0
53852.0,STARLINK-4797,PAYLOAD,2023-09-24 09:46:34,15.0884264,0.0001445,53.2193,357.1073,88.3175,271.7982,-1.0333e-05,-4.52e-06,0.0,0 STARLINK-4797,1 53852U 22114AL  23267.40734740 -.00000452  00000-0 -10333-4 0  9999,2 53852  53.2193 357.1073 0001445  88.3175 271.7982 15.08842640 57040,6917.872,95.437,540.737,538.738,0.0
53852.0,STARLINK-4797,PAYLOAD,2023-09-24 12:57:20,15.08845535,0.0001428,53.2185,356.5122,83.1611,276.9543,-7.2312e-06,-4.03e-06,0.0,0 STARLINK-4797,1 53852U 22114AL  23267.53982556 -.00000403  00000-0 -72312-5 0  9995,2 53852  53.2185 356.5122 0001428  83.1611 276.9543 15.08845535 57606,6917.863,95.437,540.716,538.741,0.0
53852.0,STARLINK-4797,PAYLOAD,2023-09-25 11:12:44,15.08845212,0.000149,53.2192,352.3515,73.3517,286.7639,0.00011706,1.576e-05,0.0,0 STARLINK-4797,1 53852U 22114AL  23268.46718373  .00001576  00000-0  11706-3 0  9990,2 53852  53.2192 352.3515 0001490  73.3517 286.7639 15.08845212 57202,6917.864,95.437,540.76,538.699,0.0
53852.0,STARLINK-4797,PAYLOAD,2023-09-25 12:48:09,15.08805755,0.0001756,53.2193,352.0553,82.0237,278.0955,0.0014112,0.00022222,0.0,0 STARLINK-4797,1 53852U 22114AL  23268.53344461  .00022222  00000-0  14112-2 0  9995,2 53852  53.2193 352.0553 0001756  82.0237 278.0955 15.08805755 57756,6917.985,95.44,541.065,538.635,0.0
53852.0,STARLINK-4797,PAYLOAD,2023-09-26 09:28:09,15.08831041,0.0001373,53.2194,348.1883,108.3929,251.7212,-3.0421e-05,-7.72e-06,0.0,0 STARLINK-4797,1 53852U 22114AL  23269.39455304 -.00000772  00000-0 -30421-4 0  9990,2 53852  53.2194 348.1883 0001373 108.3929 251.7212 15.08831041 57340,6917.908,95.438,540.723,538.823,0.0
53852.0,STARLINK-4797,PAYLOAD,2023-09-26 11:03:32,15.08832368,0.0001554,53.2192,347.8908,101.5267,258.5899,-8.316e-06,-4.2e-06,0.0,0 STARLINK-4797,1 53852U 22114AL  23269.46079345 -.00000420  00000-0 -83160-5 0  9994,2 53852  53.2192 347.8908 0001554 101.5267 258.5899 15.08832368 57892,6917.904,95.438,540.844,538.694,0.0
53852.0,STARLINK-4797,PAYLOAD,2023-09-27 09:18:56,15.08845587,0.0001417,53.2183,343.7252,101.8529,258.2622,5.3603e-05,5.65e-06,0.0,0 STARLINK-4797,1 53852U 22114AL  23270.38814836  .00000565  00000-0  53603-4 0  9995,2 53852  53.2183 343.7252 0001417 101.8529 258.2622 15.08845587 57495,6917.863,95.437,540.709,538.748,0.0
53852.0,STARLINK-4797,PAYLOAD,2023-09-27 12:29:42,15.08849692,0.0002049,53.2191,343.1312,54.1869,305.9313,0.00015321,2.152e-05,0.0,0 STARLINK-4797,1 53852U 22114AL  23270.52062729  .00002152  00000-0  15321-3 0  9995,2 53852  53.2191 343.1312 0002049  54.1869 305.9313 15.08849692 58055,6917.851,95.437,541.133,538.298,0.0
53852.0,STARLINK-4797,PAYLOAD,2023-09-28 12:20:30,15.08839331,0.0001528,53.2179,338.6708,74.0011,286.1149,0.00010804,1.432e-05,0.0,0 STARLINK-4797,1 53852U 22114AL  23271.51423645  .00001432  00000-0  10804-3 0  9994,2 53852  53.2179 338.6708 0001528  74.0011 286.1149 15.08839331 57662,6917.882,95.438,540.804,538.69,0.0
53852.0,STARLINK-4797,PAYLOAD,2023-09-29 10:35:53,15.08844049,0.0001697,53.217,334.5104,61.5097,298.6066,-2.4458e-06,-3.27e-06,0.0,0 STARLINK-4797,1 53852U 22114AL  23272.44159536 -.00000327  00000-0 -24458-5 0  9998,2 53852  53.2170 334.5104 0001697  61.5097 298.6066 15.08844049 58344,6917.868,95.437,540.907,538.559,0.0
53852.0,STARLINK-4797,PAYLOAD,2023-09-29 23:18:58,15.08849377,0.0001315,53.2172,332.1279,96.7073,263.4069,0.00031321,4.702e-05,0.0,0 STARLINK-4797,1 53852U 22114AL  23272.97151211  .00004702  00000-0  31321-3 0  9992,2 53852  53.2172 332.1279 0001315  96.7073 263.4069 15.08849377 57884,6917.852,95.437,540.626,538.807,0.0
53852.0,STARLINK-4797,PAYLOAD,2023-10-01 03:55:54,15.08841524,0.0001279,53.2166,326.7761,49.889,310.2214,-1.9429e-05,-5.97e-06,0.0,0 STARLINK-4797,1 53852U 22114AL  23274.16383058 -.00000597  00000-0 -19429-4 0  9997,2 53852  53.2166 326.7761 0001279  49.8890 310.2214 15.08841524 58067,6917.876,95.437,540.626,538.856,0.0
53852.0,STARLINK-4797,PAYLOAD,2023-10-01 10:17:27,15.08851841,0.0001584,53.2164,325.5871,86.8944,273.2229,0.00038992,5.925e-05,0.0,0 STARLINK-4797,1 53852U 22114AL  23274.42878477  .00005925  00000-0  38992-3 0  9993,2 53852  53.2164 325.5871 0001584  86.8944 273.2229 15.08851841 58106,6917.844,95.437,540.805,538.613,0.0
53852.0,STARLINK-4797,PAYLOAD,2023-10-02 10:08:15,15.0882406,0.0001673,53.2168,321.127,84.6924,275.4258,0.0003185,4.782e-05,0.0,0 STARLINK-4797,1 53852U 22114AL  23275.42240051  .00004782  00000-0  31850-3 0  9991,2 53852  53.2168 321.1270 0001673  84.6924 275.4258 15.08824060 58253,6917.929,95.439,540.951,538.637,0.0
53852.0,STARLINK-4797,PAYLOAD,2023-10-02 19:40:34,15.08833162,0.0001658,53.2173,319.3427,85.8456,274.2725,0.00037644,5.707e-05,0.0,0 STARLINK-4797,1 53852U 22114AL  23275.81984180  .00005707  00000-0  37644-3 0  9997,2 53852  53.2173 319.3427 0001658  85.8456 274.2725 15.08833162 58853,6917.901,95.438,540.913,538.619,0.0
